HORYU-4                 
1 41340U 16012D   20251.13251179  .00000419  00000-0  24871-4 0  9991
2 41340  31.0045 171.6076 0014064 239.3169 120.6081 15.01549065250161
E-ST@R-II               
1 41459U 16025D   20251.75514474  .00000323  00000-0  20895-4 0  9990
2 41459  98.1118   6.0731 0162822 295.0970  63.3392 15.06611265239837
AAUSAT 4                
1 41460U 16025E   20251.83053459  .00001039  00000-0  54762-4 0  9997
2 41460  98.1084   8.7822 0151573 282.4290  76.0008 15.08998460240066
BEESAT-4                
1 41619U 16040W   20251.23104106  .00001139  00000-0  49576-4 0  9998
2 41619  97.3122 308.8064 0009426 247.6499 112.3740 15.24201950221853
CANX-7                  
1 41788U 16059F   20251.84496135  .00007701  00000-0  10327-2 0  9999
2 41788  98.2588 341.8432 0026415  50.1439 310.2072 14.79423261211991
RAVAN                   
1 41849U 16067B   20251.26991946  .00000939  00000-0  83372-4 0  9990
2 41849  97.9413   2.5462 0007408 346.5558  13.5465 14.98630066208877
CELTEE 1                
1 41850U 16067C   20251.27410937 -.00000161  00000-0 -86122-5 0  9995
2 41850  97.9340   0.0334 0008397 346.8113  13.2887 14.97223948208744
OPTICUBE 04             
1 41851U 16067D   20251.82047992 -.00000379  00000-0 -27630-4 0  9993
2 41851  97.9319   0.1617 0008543 344.3078  15.7877 14.96948508208800
AEROCUBE 8D             
1 41852U 16067E   20251.30220835  .00000215  00000-0  23979-4 0  9995
2 41852  97.9320 359.4768 0009011 345.5090  14.5871 14.96946832208706
AEROCUBE 8C             
1 41853U 16067F   20251.26886100  .00000115  00000-0  15335-4 0  9990
2 41853  97.9329 359.3397 0009585 349.4638  10.6381 14.96919521208696
PROMETHEUS 2-1          
1 41854U 16067G   20251.55451620 -.00000149  00000-0 -75560-5 0  9994
2 41854  97.9331   0.0119 0009902 344.1714  15.9197 14.97256517208752
PROMETHEUS 2-3          
1 41855U 16067H   20251.82175551 -.00000120  00000-0 -50983-5 0  9992
2 41855  97.9333   0.3199 0010076 343.4570  16.6321 14.97265629208797
INS-1B                  
1 41954U 17008G   20251.43938441  .00001090  00000-0  46529-4 0  9995
2 41954  97.3474 314.3494 0009415  22.7776 337.3878 15.24961264197867
BGUSAT                  
1 41999U 17008BD  20251.15412452  .00001777  00000-0  68114-4 0  9998
2 41999  97.3594 318.6837 0008467  33.2597 326.9173 15.27807939197426
DIDO-2                  
1 42000U 17008BE  20251.22310590  .00000727  00000-0  32316-4 0  9999
2 42000  97.3481 314.6112 0009405  41.3150 318.8798 15.24603266197220
PEASSS                  
1 42015U 17008BV  20251.46649071  .00000980  00000-0  41154-4 0  9991
2 42015  97.3509 316.6203 0007360  45.8642 314.3201 15.25777959197854
AL-FARABI 1             
1 42016U 17008BW  20251.76902484  .00001206  00000-0  48715-4 0  9997
2 42016  97.3539 318.1016 0007136  44.5977 315.5835 15.26666315198081
NAYIF-1 (EO-88)         
1 42017U 17008BX  20251.41779763  .00001281  00000-0  51523-4 0  9996
2 42017  97.3534 317.7658 0007207  44.7326 315.4493 15.26707866198056
UCLSAT                  
1 42765U 17036A   20251.58065665  .00001009  00000-0  44854-4 0  9991
2 42765  97.2933 303.5896 0013011  96.3007 263.9713 15.23691345179089
LITUANICASAT-2          
1 42768U 17036D   20251.59106878  .00001736  00000-0  73539-4 0  9996
2 42768  97.2993 303.7080 0016303  87.4152 272.8952 15.24352682178356
AALTO-1                 
1 42775U 17036L   20251.57416104  .00000634  00000-0  30702-4 0  9999
2 42775  97.2907 301.1650 0015569  91.1466 269.1554 15.21951936178167
URSA MAIOR              
1 42776U 17036M   20251.68483794  .00000675  00000-0  32323-4 0  9997
2 42776  97.2920 301.5930 0015364  90.5165 269.7832 15.22144434178196
COMPASS 2               
1 42777U 17036N   20251.81967823  .00001369  00000-0  59004-4 0  9999
2 42777  97.2979 304.3162 0013926  87.8905 272.3927 15.24151634178346
DIAMOND RED             
1 42783U 17036U   20251.81012709  .00000815  00000-0  37514-4 0  9997
2 42783  97.2932 302.9946 0013719  97.7920 262.4876 15.22975584178285
PEGASUS                 
1 42784U 17036V   20251.42579983  .00000954  00000-0  42922-4 0  9990
2 42784  97.2937 303.0953 0013569  97.8619 262.4159 15.23372275178250
DIAMOND GREEN           
1 42785U 17036W   20251.41471374  .00000609  00000-0  28774-4 0  9991
2 42785  97.2936 302.6486 0013619  99.6471 260.6305 15.22969657178290
DIAMOND BLUE            
1 42786U 17036X   20251.67671512  .00000792  00000-0  36538-4 0  9996
2 42786  97.2934 302.8978 0013467  98.9675 261.3087 15.22975185178250
NUDTSAT                 
1 42787U 17036Y   20251.60731952  .00001621  00000-0  68149-4 0  9990
2 42787  97.2986 304.8628 0012510  88.8132 271.4546 15.24760554178218
SUCHAI                  
1 42788U 17036Z   20251.81369000  .00001147  00000-0  50193-4 0  9998
2 42788  97.2946 304.1389 0013102  95.0233 265.2501 15.23953430178423
SKCUBE                  
1 42789U 17036AA  20251.21194498  .00001075  00000-0  47468-4 0  9991
2 42789  97.2941 303.3802 0012990  97.2102 263.0613 15.23780639178242
VZLUSAT-1               
1 42790U 17036AB  20251.59713689  .00001386  00000-0  58709-4 0  9998
2 42790  97.2967 304.8464 0012480  93.7917 266.4749 15.24743342178362
ROBUSTA-1B              
1 42792U 17036AD  20251.68069844  .00001081  00000-0  47434-4 0  9992
2 42792  97.2943 304.1136 0012578  95.9666 264.3006 15.23980033178340
CICERO 6                
1 42793U 17036AE  20251.57297839  .00000715  00000-0  33018-4 0  9994
2 42793  97.2917 303.3064 0011914  98.6904 261.5684 15.23268483178362
D-SAT                   
1 42794U 17036AF  20251.56977839  .00000276  00000-0  28903-4 0  9998
2 42794  97.4885 280.1385 0127705  90.9374 270.6480 14.91314546174939
CORVUS BC2              
1 42846U 17042X   20251.58981398 -.00000046  00000-0  64294-6 0  9991
2 42846  97.5105 131.3942 0009939  13.4463 346.7019 14.92133499171652
CORVUS BC1              
1 42847U 17042Y   20251.57992435 -.00000058  00000-0 -46842-6 0  9998
2 42847  97.5107 131.5694 0009571  12.9016 347.2447 14.92235489171654
MIRATA                  
1 43015U 17073C   20251.49752755  .00000592  00000-0  50582-4 0  9995
2 43015  97.7126 160.5853 0253627 140.6426 221.3526 14.79771914151359
MAKERSAT 0              
1 43016U 17073D   20251.48389845  .00000407  00000-0  36491-4 0  9999
2 43016  97.7164 160.7355 0256550 141.9587 220.0055 14.79304287151337
DELLINGR (RBLE)         
1 43021U 98067NJ  20251.64373974  .00014766  00000-0  11066-3 0  9994
2 43021  51.6341 219.1683 0002156  49.4727 310.6459 15.72899350159797
AEROCUBE 7B (OCSD B)    
1 43042U 17071F   20251.57394070  .00003436  00000-0  82808-4 0  9990
2 43042  51.6387  23.4464 0004331 353.4462   6.6467 15.44152337155067
AEROCUBE 7C (OCSD C)    
1 43043U 17071G   20251.57870012  .00003522  00000-0  84719-4 0  9995
2 43043  51.6387  23.4932 0004601 357.2870   2.8091 15.44126703155039
CHEFSAT                 
1 43044U 17071H   20251.55595263  .00006609  00000-0  12566-3 0  9995
2 43044  51.6387   5.6531 0004430   3.3691 356.7327 15.49539068155273
ASGARDIA 1              
1 43049U 17071N   20251.76485653  .00003275  00000-0  79369-4 0  9995
2 43049  51.6399  21.8203 0002481  18.8246 341.2832 15.44139425155063
ISARA                   
1 43050U 17071P   20251.78949998  .00006533  00000-0  12947-3 0  9994
2 43050  51.6370   7.8190 0002496  18.1024 342.0053 15.48355566155251
PROPCUBE 2 (FAUNA)      
1 43052U 17071R   20251.53174103  .00003089  00000-0  74184-4 0  9992
2 43052  51.6393  21.0295 0002405  15.6169 344.4891 15.44634656155054
CORVUS BC3              
1 43118U 18004H   20251.46610326  .00000680  00000-0  31455-4 0  9994
2 43118  97.4378 321.0481 0011773 120.4130 239.8272 15.23476630147480
MICROMAS-2A             
1 43131U 18004W   20251.25239358  .00001632  00000-0  67181-4 0  9991
2 43131  97.4433 322.8685 0010620 118.9189 241.3115 15.25534309147561
SPACEBEE-4              
1 43139U 18004AE  20251.73861724  .00002162  00000-0  84459-4 0  9996
2 43139  97.4467 324.7416 0010044 117.8157 242.4101 15.26942526147700
SPACEBEE-3              
1 43140U 18004AF  20251.69791717  .00002748  00000-0  10348-3 0  9992
2 43140  97.4485 325.5234 0009734 116.4849 243.7390 15.27931978147755
SPACEBEE-2              
1 43141U 18004AG  20251.46389007  .00003079  00000-0  11446-3 0  9991
2 43141  97.4501 325.6030 0009714 116.5192 243.7044 15.28267652147736
SPACEBEE-1              
1 43142U 18004AH  20251.47712452  .00003241  00000-0  11891-3 0  9992
2 43142  97.4504 325.9280 0009673 116.2749 243.9486 15.28661739147746
CICERO 7                
1 43143U 18004AJ  20251.31760095  .00001485  00000-0  61386-4 0  9995
2 43143  97.4410 323.0959 0008736 125.6354 234.5699 15.25552583147598
GOMX-4B                 
1 43196U 18015E   20251.60625481  .00000433  00000-0  20593-4 0  9993
2 43196  97.4489  19.5666 0019013 171.0155 189.1426 15.24323070144415
GOMX-4A                 
1 43197U 18015F   20251.82863921  .00000832  00000-0  36540-4 0  9993
2 43197  97.4483  19.9070 0019121 170.4620 348.3401 15.24615881144464
UBAKUSAT                
1 43467U 98067NQ  20251.38465160  .00036429  00000-0  19206-3 0  9992
2 43467  51.6333 218.7536 0002636  63.4924 296.6348 15.80286101133045
CUBERRT                 
1 43546U 98067NU  20251.28887109  .00054483  00000-0  32088-3 0  9993
2 43546  51.6317 220.4083 0002814  59.3671 300.7606 15.77642954123145
TEMPEST-D               
1 43547U 98067NV  20251.50378405  .00008213  00000-0  92098-4 0  9991
2 43547  51.6350 257.3329 0005027  13.3917 346.7210 15.63647668122352
RAINCUBE                
1 43548U 98067NW  20251.41923478  .00038176  00000-0  21048-3 0  9995
2 43548  51.6296 227.2116 0005216  58.7720 301.3792 15.79263568123192
HALOSAT                 
1 43549U 98067NX  20251.41235924  .00031016  00000-0  18284-3 0  9992
2 43549  51.6335 228.7904 0005039  62.3408 297.8103 15.77879967122733
